STARLINK-4300           
1 53173U 22083AT  26068.46628984 -.00000168  00000+0  75516-5 0  9997
2 53173  53.2153 140.1125 0001252  83.9868 276.1267 15.08844016201669
LEMUR-2-AHMED-ASRAR     
1 60576U 24149DN  26068.73265438  .00013045  00000+0  79773-3 0  9992
2 60576  97.7021 152.9847 0001633  18.5035 341.6253 15.10376432 85541
